{
  "type": "FeatureCollection",
  "features": [
    {
      "type": "Feature",
      "properties": {
        "norad_id": 66568,
        "name": "STARLINK-35803",
        "group": "last-30-days",
        "lat": 21.444495147114704,
        "lon": -29.598109645556146,
        "alt_km": 342.61938920918146,
        "timestamp": "2025-12-03T13:52:08.346651+00:00",
        "meta_object_name": "STARLINK-35803",
        "meta_object_id": "2025-268M",
        "meta_epoch": "2025-12-03T06:00:02.999808",
        "meta_mean_motion": 15.75369331,
        "meta_eccentricity": 0.00012444,
        "meta_inclination": 42.9989,
        "meta_ra_of_asc_node": 177.3233,
        "meta_arg_of_pericenter": 271.4377,
        "meta_mean_anomaly": 174.9131,
        "meta_ephemeris_type": 0,
        "meta_classification_type": "U",
        "meta_norad_cat_id": 66568,
        "meta_element_set_no": 999,
        "meta_rev_at_epoch": 314,
        "meta_bstar": -0.0067398198,
        "meta_mean_motion_dot": -0.00940408,
        "meta_mean_motion_ddot": 0,
        "tle_line1": "1 66568U 25268M   25337.25003472 -.00940408  00000+0 -67398-2 0  9998",
        "tle_line2": "2 66568  42.9989 177.3233 0001244 271.4377 174.9131 15.75369331  3149"
      },
      "geometry": {
        "type": "Point",
        "coordinates": [
          -29.598109645556146,
          21.444495147114704
        ]
      }
    },
    {
      "type": "Feature",
      "properties": {
        "norad_id": 66569,
        "name": "STARLINK-35835",
        "group": "last-30-days",
        "lat": 20.253535846901656,
        "lon": -27.998949102149666,
        "alt_km": 342.75018635078595,
        "timestamp": "2025-12-03T13:52:08.346663+00:00",
        "meta_object_name": "STARLINK-35835",
        "meta_object_id": "2025-268N",
        "meta_epoch": "2025-12-03T06:00:02.999808",
        "meta_mean_motion": 15.75373978,
        "meta_eccentricity": 0.00015296,
        "meta_inclination": 42.999,
        "meta_ra_of_asc_node": 177.3186,
        "meta_arg_of_pericenter": 263.0628,
        "meta_mean_anomaly": 185.2042,
        "meta_ephemeris_type": 0,
        "meta_classification_type": "U",
        "meta_norad_cat_id": 66569,
        "meta_element_set_no": 999,
        "meta_rev_at_epoch": 314,
        "meta_bstar": -0.0068127114,
        "meta_mean_motion_dot": -0.00949791,
        "meta_mean_motion_ddot": 0,
        "tle_line1": "1 66569U 25268N   25337.25003472 -.00949791  00000+0 -68127-2 0  9994",
        "tle_line2": "2 66569  42.9990 177.3186 0001529 263.0628 185.2042 15.75373978  3149"
      },
      "geometry": {
        "type": "Point",
        "coordinates": [
          -27.998949102149666,
          20.253535846901656
        ]
      }
    },
    {
      "type": "Feature",
      "properties": {
        "norad_id": 66570,
        "name": "STARLINK-35834",
        "group": "last-30-days",
        "lat": 19.044521889599014,
        "lon": -26.419734483846693,
        "alt_km": 343.43123934552386,
        "timestamp": "2025-12-03T13:52:08.346673+00:00",
        "meta_object_name": "STARLINK-35834",
        "meta_object_id": "2025-268P",
        "meta_epoch": "2025-12-03T06:00:02.999808",
        "meta_mean_motion": 15.75373255,
        "meta_eccentricity": 0.00019669,
        "meta_inclination": 42.9989,
        "meta_ra_of_asc_node": 177.3139,
        "meta_arg_of_pericenter": 280.7845,
        "meta_mean_anomaly": 169.4051,
        "meta_ephemeris_type": 0,
        "meta_classification_type": "U",
        "meta_norad_cat_id": 66570,
        "meta_element_set_no": 999,
        "meta_rev_at_epoch": 314,
        "meta_bstar": -0.0068558734,
        "meta_mean_motion_dot": -0.00955318,
        "meta_mean_motion_ddot": 0,
        "tle_line1": "1 66570U 25268P   25337.25003472 -.00955318  00000+0 -68559-2 0  9997",
        "tle_line2": "2 66570  42.9989 177.3139 0001966 280.7845 169.4051 15.75373255  3141"
      },
      "geometry": {
        "type": "Point",
        "coordinates": [
          -26.419734483846693,
          19.044521889599014
        ]
      }
    },
    {
      "type": "Feature",
      "properties": {
        "norad_id": 66571,
        "name": "STARLINK-35836",
        "group": "last-30-days",
        "lat": 17.821492315216307,
        "lon": -24.862462738609747,
        "alt_km": 343.2127518334519,
        "timestamp": "2025-12-03T13:52:08.346683+00:00",
        "meta_object_name": "STARLINK-35836",
        "meta_object_id": "2025-268Q",
        "meta_epoch": "2025-12-03T06:00:02.999808",
        "meta_mean_motion": 15.75386343,
        "meta_eccentricity": 0.00013381,
        "meta_inclination": 42.9991,
        "meta_ra_of_asc_node": 177.3092,
        "meta_arg_of_pericenter": 275.6915,
        "meta_mean_anomaly": 176.4007,
        "meta_ephemeris_type": 0,
        "meta_classification_type": "U",
        "meta_norad_cat_id": 66571,
        "meta_element_set_no": 999,
        "meta_rev_at_epoch": 314,
        "meta_bstar": -0.0068909119,
        "meta_mean_motion_dot": -0.0095993,
        "meta_mean_motion_ddot": 0,
        "tle_line1": "1 66571U 25268Q   25337.25003472 -.00959930  00000+0 -68909-2 0  9991",
        "tle_line2": "2 66571  42.9991 177.3092 0001338 275.6915 176.4007 15.75386343  3148"
      },
      "geometry": {
        "type": "Point",
        "coordinates": [
          -24.862462738609747,
          17.821492315216307
        ]
      }
    },
    {
      "type": "Feature",
      "properties": {
        "norad_id": 66572,
        "name": "STARLINK-35870",
        "group": "last-30-days",
        "lat": 16.614700433059692,
        "lon": -23.360991337431038,
        "alt_km": 343.4904788533595,
        "timestamp": "2025-12-03T13:52:08.346696+00:00",
        "meta_object_name": "STARLINK-35870",
        "meta_object_id": "2025-268R",
        "meta_epoch": "2025-12-03T06:00:02.999808",
        "meta_mean_motion": 15.7538762,
        "meta_eccentricity": 0.00024605,
        "meta_inclination": 42.9991,
        "meta_ra_of_asc_node": 177.3054,
        "meta_arg_of_pericenter": 268.3791,
        "meta_mean_anomaly": 185.5812,
        "meta_ephemeris_type": 0,
        "meta_classification_type": "U",
        "meta_norad_cat_id": 66572,
        "meta_element_set_no": 999,
        "meta_rev_at_epoch": 314,
        "meta_bstar": -0.0065637336,
        "meta_mean_motion_dot": -0.00919462,
        "meta_mean_motion_ddot": 0,
        "tle_line1": "1 66572U 25268R   25337.25003472 -.00919462  00000+0 -65637-2 0  9993",
        "tle_line2": "2 66572  42.9991 177.3054 0002460 268.3791 185.5812 15.75387620  3149"
      },
      "geometry": {
        "type": "Point",
        "coordinates": [
          -23.360991337431038,
          16.614700433059692
        ]
      }
    },
    {
      "type": "Feature",
      "properties": {
        "norad_id": 66573,
        "name": "STARLINK-35650",
        "group": "last-30-days",
        "lat": 15.360382195873443,
        "lon": -21.835801526165366,
        "alt_km": 343.6125427081215,
        "timestamp": "2025-12-03T13:52:08.346706+00:00",
        "meta_object_name": "STARLINK-35650",
        "meta_object_id": "2025-268S",
        "meta_epoch": "2025-12-03T06:00:02.999808",
        "meta_mean_motion": 15.75372341,
        "meta_eccentricity": 0.00024438,
        "meta_inclination": 42.9991,
        "meta_ra_of_asc_node": 177.2996,
        "meta_arg_of_pericenter": 265.6008,
        "meta_mean_anomaly": 190.3157,
        "meta_ephemeris_type": 0,
        "meta_classification_type": "U",
        "meta_norad_cat_id": 66573,
        "meta_element_set_no": 999,
        "meta_rev_at_epoch": 314,
        "meta_bstar": -0.0066514884,
        "meta_mean_motion_dot": -0.00929924,
        "meta_mean_motion_ddot": 0,
        "tle_line1": "1 66573U 25268S   25337.25003472 -.00929924  00000+0 -66515-2 0  9994",
        "tle_line2": "2 66573  42.9991 177.2996 0002443 265.6008 190.3157 15.75372341  3146"
      },
      "geometry": {
        "type": "Point",
        "coordinates": [
          -21.835801526165366,
          15.360382195873443
        ]
      }
    },
    {
      "type": "Feature",
      "properties": {
        "norad_id": 66574,
        "name": "STARLINK-35812",
        "group": "last-30-days",
        "lat": 14.092635271715032,
        "lon": -20.32508885743975,
        "alt_km": 343.61579215881375,
        "timestamp": "2025-12-03T13:52:08.346716+00:00",
        "meta_object_name": "STARLINK-35812",
        "meta_object_id": "2025-268T",
        "meta_epoch": "2025-12-03T06:00:02.999808",
        "meta_mean_motion": 15.75383492,
        "meta_eccentricity": 0.00014535,
        "meta_inclination": 42.9989,
        "meta_ra_of_asc_node": 177.2942,
        "meta_arg_of_pericenter": 268.5554,
        "meta_mean_anomaly": 189.2865,
        "meta_ephemeris_type": 0,
        "meta_classification_type": "U",
        "meta_norad_cat_id": 66574,
        "meta_element_set_no": 999,
        "meta_rev_at_epoch": 314,
        "meta_bstar": -0.0068583105,
        "meta_mean_motion_dot": -0.00955806,
        "meta_mean_motion_ddot": 0,
        "tle_line1": "1 66574U 25268T   25337.25003472 -.00955806  00000+0 -68583-2 0  9990",
        "tle_line2": "2 66574  42.9989 177.2942 0001453 268.5554 189.2865 15.75383492  3145"
      },
      "geometry": {
        "type": "Point",
        "coordinates": [
          -20.32508885743975,
          14.092635271715032
        ]
      }
    }
  ]
}